{
  "type": "FeatureCollection",
  "features": [
    {
      "type": "Feature",
      "properties": {
        "norad_id": 55973,
        "name": "TIANMU-1 03",
        "group": "weather",
        "lat": -31.554563427403643,
        "lon": 160.85844860178128,
        "alt_km": 448.18739977828864,
        "timestamp": "2025-12-19T08:58:48.981026+00:00",
        "meta_object_name": "TIANMU-1 03",
        "meta_object_id": "2023-039A",
        "meta_epoch": "2025-12-18T23:46:05.413152",
        "meta_mean_motion": 15.4110024,
        "meta_eccentricity": 0.00041264,
        "meta_inclination": 97.5101,
        "meta_ra_of_asc_node": 155.8169,
        "meta_arg_of_pericenter": 43.2907,
        "meta_mean_anomaly": 316.8663,
        "meta_ephemeris_type": 0,
        "meta_classification_type": "U",
        "meta_norad_cat_id": 55973,
        "meta_element_set_no": 999,
        "meta_rev_at_epoch": 15302,
        "meta_bstar": 0.00030406323,
        "meta_mean_motion_dot": 0.000125,
        "meta_mean_motion_ddot": 0,
        "tle_line1": "1 55973U 23039A   25352.99034043  .00012500  00000+0  30406-3 0  9998",
        "tle_line2": "2 55973  97.5101 155.8169 0004126  43.2907 316.8663 15.41100240153029"
      },
      "geometry": {
        "type": "Point",
        "coordinates": [
          160.85844860178128,
          -31.554563427403643
        ]
      }
    },
    {
      "type": "Feature",
      "properties": {
        "norad_id": 55974,
        "name": "TIANMU-1 04",
        "group": "weather",
        "lat": 82.4814794391686,
        "lon": 62.449959321109446,
        "alt_km": 432.472886915265,
        "timestamp": "2025-12-19T08:58:48.981037+00:00",
        "meta_object_name": "TIANMU-1 04",
        "meta_object_id": "2023-039B",
        "meta_epoch": "2025-12-18T23:14:31.310016",
        "meta_mean_motion": 15.41440198,
        "meta_eccentricity": 0.00047654,
        "meta_inclination": 97.5034,
        "meta_ra_of_asc_node": 154.9828,
        "meta_arg_of_pericenter": 37.2951,
        "meta_mean_anomaly": 322.8626,
        "meta_ephemeris_type": 0,
        "meta_classification_type": "U",
        "meta_norad_cat_id": 55974,
        "meta_element_set_no": 999,
        "meta_rev_at_epoch": 15302,
        "meta_bstar": 0.00030037031,
        "meta_mean_motion_dot": 0.00012489,
        "meta_mean_motion_ddot": 0,
        "tle_line1": "1 55974U 23039B   25352.96841794  .00012489  00000+0  30037-3 0  9991",
        "tle_line2": "2 55974  97.5034 154.9828 0004765  37.2951 322.8626 15.41440198153023"
      },
      "geometry": {
        "type": "Point",
        "coordinates": [
          62.449959321109446,
          82.4814794391686
        ]
      }
    },
    {
      "type": "Feature",
      "properties": {
        "norad_id": 55975,
        "name": "TIANMU-1 05",
        "group": "weather",
        "lat": 65.65263176200209,
        "lon": -7.162436082969272,
        "alt_km": 434.88843860527686,
        "timestamp": "2025-12-19T08:58:48.981047+00:00",
        "meta_object_name": "TIANMU-1 05",
        "meta_object_id": "2023-039C",
        "meta_epoch": "2025-12-18T23:08:27.364704",
        "meta_mean_motion": 15.41056354,
        "meta_eccentricity": 0.00041908,
        "meta_inclination": 97.508,
        "meta_ra_of_asc_node": 155.4711,
        "meta_arg_of_pericenter": 61.0627,
        "meta_mean_anomaly": 299.1039,
        "meta_ephemeris_type": 0,
        "meta_classification_type": "U",
        "meta_norad_cat_id": 55975,
        "meta_element_set_no": 999,
        "meta_rev_at_epoch": 15300,
        "meta_bstar": 0.00029323617,
        "meta_mean_motion_dot": 0.00012034,
        "meta_mean_motion_ddot": 0,
        "tle_line1": "1 55975U 23039C   25352.96420561  .00012034  00000+0  29324-3 0  9990",
        "tle_line2": "2 55975  97.5080 155.4711 0004190  61.0627 299.1039 15.41056354153008"
      },
      "geometry": {
        "type": "Point",
        "coordinates": [
          -7.162436082969272,
          65.65263176200209
        ]
      }
    },
    {
      "type": "Feature",
      "properties": {
        "norad_id": 55976,
        "name": "TIANMU-1 06",
        "group": "weather",
        "lat": 77.13280168783326,
        "lon": 121.09094009273245,
        "alt_km": 431.68427523136234,
        "timestamp": "2025-12-19T08:58:48.981057+00:00",
        "meta_object_name": "TIANMU-1 06",
        "meta_object_id": "2023-039D",
        "meta_epoch": "2025-12-18T23:17:21.156864",
        "meta_mean_motion": 15.41491867,
        "meta_eccentricity": 0.00044605,
        "meta_inclination": 97.5091,
        "meta_ra_of_asc_node": 155.9477,
        "meta_arg_of_pericenter": 55.6607,
        "meta_mean_anomaly": 304.5061,
        "meta_ephemeris_type": 0,
        "meta_classification_type": "U",
        "meta_norad_cat_id": 55976,
        "meta_element_set_no": 999,
        "meta_rev_at_epoch": 15302,
        "meta_bstar": 0.00029959071,
        "meta_mean_motion_dot": 0.00012477,
        "meta_mean_motion_ddot": 0,
        "tle_line1": "1 55976U 23039D   25352.97038376  .00012477  00000+0  29959-3 0  9996",
        "tle_line2": "2 55976  97.5091 155.9477 0004460  55.6607 304.5061 15.41491867153022"
      },
      "geometry": {
        "type": "Point",
        "coordinates": [
          121.09094009273245,
          77.13280168783326
        ]
      }
    },
    {
      "type": "Feature",
      "properties": {
        "norad_id": 56232,
        "name": "FENGYUN 3G",
        "group": "weather",
        "lat": 24.0195174039489,
        "lon": -8.77387848231619,
        "alt_km": 396.53348059326527,
        "timestamp": "2025-12-19T08:58:48.981067+00:00",
        "meta_object_name": "FENGYUN 3G",
        "meta_object_id": "2023-055A",
        "meta_epoch": "2025-12-18T23:05:15.512640",
        "meta_mean_motion": 15.54006289,
        "meta_eccentricity": 0.00093009,
        "meta_inclination": 49.9921,
        "meta_ra_of_asc_node": 195.3371,
        "meta_arg_of_pericenter": 176.6524,
        "meta_mean_anomaly": 183.4508,
        "meta_ephemeris_type": 0,
        "meta_classification_type": "U",
        "meta_norad_cat_id": 56232,
        "meta_element_set_no": 999,
        "meta_rev_at_epoch": 15199,
        "meta_bstar": 0.00039250893,
        "meta_mean_motion_dot": 0.00025554,
        "meta_mean_motion_ddot": 0,
        "tle_line1": "1 56232U 23055A   25352.96198510  .00025554  00000+0  39251-3 0  9992",
        "tle_line2": "2 56232  49.9921 195.3371 0009300 176.6524 183.4508 15.54006289151990"
      },
      "geometry": {
        "type": "Point",
        "coordinates": [
          -8.77387848231619,
          24.0195174039489
        ]
      }
    },
    {
      "type": "Feature",
      "properties": {
        "norad_id": 57166,
        "name": "METEOR-M2 3",
        "group": "weather",
        "lat": 38.818792953867536,
        "lon": 39.773122591639265,
        "alt_km": 807.1636398771643,
        "timestamp": "2025-12-19T08:58:48.981078+00:00",
        "meta_object_name": "METEOR-M2 3",
        "meta_object_id": "2023-091A",
        "meta_epoch": "2025-12-18T22:40:41.918304",
        "meta_mean_motion": 14.24026793,
        "meta_eccentricity": 0.00035524,
        "meta_inclination": 98.6371,
        "meta_ra_of_asc_node": 46.3757,
        "meta_arg_of_pericenter": 350.4382,
        "meta_mean_anomaly": 9.6728,
        "meta_ephemeris_type": 0,
        "meta_classification_type": "U",
        "meta_norad_cat_id": 57166,
        "meta_element_set_no": 999,
        "meta_rev_at_epoch": 12886,
        "meta_bstar": 2.667535e-05,
        "meta_mean_motion_dot": 1.8e-07,
        "meta_mean_motion_ddot": 0,
        "tle_line1": "1 57166U 23091A   25352.94492961  .00000018  00000+0  26675-4 0  9999",
        "tle_line2": "2 57166  98.6371  46.3757 0003552 350.4382   9.6728 14.24026793128868"
      },
      "geometry": {
        "type": "Point",
        "coordinates": [
          39.773122591639265,
          38.818792953867536
        ]
      }
    },
    {
      "type": "Feature",
      "properties": {
        "norad_id": 57399,
        "name": "TIANMU-1 07",
        "group": "weather",
        "lat": -8.473954897662303,
        "lon": -138.0142592521682,
        "alt_km": 487.49557549080964,
        "timestamp": "2025-12-19T08:58:48.981088+00:00",
        "meta_object_name": "TIANMU-1 07",
        "meta_object_id": "2023-101A",
        "meta_epoch": "2025-12-18T22:43:46.499808",
        "meta_mean_motion": 15.28157568,
        "meta_eccentricity": 0.00053638,
        "meta_inclination": 97.2871,
        "meta_ra_of_asc_node": 42.6604,
        "meta_arg_of_pericenter": 65.9991,
        "meta_mean_anomaly": 294.181,
        "meta_ephemeris_type": 0,
        "meta_classification_type": "U",
        "meta_norad_cat_id": 57399,
        "meta_element_set_no": 999,
        "meta_rev_at_epoch": 13410,
        "meta_bstar": 0.00022194891,
        "meta_mean_motion_dot": 6.021e-05,
        "meta_mean_motion_ddot": 0,
        "tle_line1": "1 57399U 23101A   25352.94706597  .00006021  00000+0  22195-3 0  9994",
        "tle_line2": "2 57399  97.2871  42.6604 0005363  65.9991 294.1810 15.28157568134109"
      },
      "geometry": {
        "type": "Point",
        "coordinates": [
          -138.0142592521682,
          -8.473954897662303
        ]
      }
    }
  ]
}